TURKSAT 3A              
1 33056U 08030B   17345.89228705  .00000140  00000-0  00000-0 0  9994
2 33056   0.0669  89.8666 0002962 160.5813 193.5434  1.00270040 21181
